1 30331U 99025AAS 15056.54201449  .00000574  00000-0  44628-3 0  9994
2 30331 099.2961 055.6282 0099707 327.3132 156.7206 13.94504620411275
1 30332U 99025AAT 15056.81058481  .00000206  00000-0  23770-3 0  9998
2 30332 099.3794 348.5630 0182002 302.0917 124.6478 13.73867937405496
1 30333U 99025AAU 15056.72987749  .00006398  00000-0  71862-3 0  9990
2 30333 098.8803 329.9317 0171711 207.3921 206.7160 14.77010200431930
1 30334U 99025AAV 15056.59044432  .00001068  00000-0  95356-3 0  9992
2 30334 098.9460 285.6131 0161080 177.0805 238.8163 13.80893799406706
1 30335U 99025AAW 15056.00594242  .00000135  00000-0  12134-3 0  9995
2 30335 099.1307 078.2846 0052473 265.2883 126.9913 13.99865998414079
1 30336U 99025AAX 15054.59445536  .00000749  00000-0  40361-3 0  9993
2 30336 098.9690 063.6472 0046929 116.9470 005.0773 14.15290801417896
1 30338U 99025AAZ 15056.52208374  .00002456  00000-0  58725-3 0  9997
2 30338 098.9164 077.2232 0356615 231.7829 285.7237 14.22398987418513
1 30339U 99025ABA 15056.21915718  .00002763  00000-0  15412-2 0  9997
2 30339 099.0489 049.0958 0034338 140.2222 277.6012 14.11448236415614
1 30340U 99025ABB 15056.41935759  .00000022  00000-0  39588-4 0  9996
2 30340 099.1142 022.7622 0146658 241.7167 278.4238 14.03220692414717
1 30341U 99025ABC 15056.17418660  .00003059  00000-0  18593-2 0  9991
2 30341 099.2262 124.9909 0065541 330.4920 053.1315 14.05954140413974
1 30343U 99025ABE 15056.55522565  .00006297  00000-0  93069-3 0  9994
2 30343 099.0427 280.0948 0224923 076.7196 341.1758 14.59863034427369
1 30344U 99025ABF 15056.20260654  .00004188  00000-0  19645-2 0  9999
2 30344 098.8246 015.0421 0016223 051.9225 063.7236 14.20584025417880
1 30345U 99025ABG 15056.85226508  .00003281  00000-0  16726-2 0  9991
2 30345 098.8378 005.6193 0024276 069.7640 349.0013 14.16264404416943
1 30346U 99025ABH 15056.33542973  .00002342  00000-0  12867-2 0  9991
2 30346 099.0203 097.9390 0078362 108.0321 311.8001 14.11154030415777
1 30347U 99025ABJ 15056.31629372  .00000374  00000-0  29693-3 0  9998
2 30347 098.4692 178.1607 0153053 163.0014 224.4267 13.91342835411258
1 30348U 99025ABK 15056.72615701  .00002734  00000-0  14705-2 0  9994
2 30348 099.0325 053.2855 0026608 120.6072 291.8303 14.13524392416041
1 30349U 99025ABL 15056.18408277  .00002098  00000-0  15234-2 0  9994
2 30349 098.5416 216.7085 0100518 242.1200 170.5274 13.94977462410743
1 30350U 99025ABM 15056.81030492  .00000790  00000-0  68489-3 0  9994
2 30350 098.1339 016.0545 0229979 306.3861 113.5361 13.77383801406430
1 30352U 99025ABP 15055.97116251  .00000537  00000-0  35655-3 0  9998
2 30352 099.1122 061.4057 0029079 176.7447 236.8769 14.05561722415009
1 30355U 99025ABS 15056.55659624  .00000843  00000-0  48026-3 0  9998
2 30355 098.9341 097.5808 0057665 026.1324 139.5031 14.11670682416409
1 30356U 99025ABT 15056.34018726  .00000658  00000-0  41875-3 0  9997
2 30356 099.0031 098.3422 0054656 246.6566 172.2131 14.06527049415162
1 30357U 99025ABU 15056.22152870  .00000373  00000-0  26191-3 0  9992
2 30357 099.1477 055.4713 0051037 135.5114 287.4543 14.03881688414647
1 30358U 99025ABV 15056.69767668  .00001439  00000-0  88096-3 0  9997
2 30358 098.7976 328.4458 0099787 217.6529 205.2611 14.04974095413674
1 30360U 99025ABX 15056.02914868  .00001844  00000-0  10532-2 0  9992
2 30360 099.0585 075.8964 0039734 191.2082 195.7870 14.10522026416559
1 30361U 99025ABY 15056.62336709  .00001450  00000-0  76143-3 0  9995
2 30361 098.9305 099.5142 0078136 169.8633 313.1114 14.14166009417660
1 30362U 99025ABZ 15056.71625689  .00002663  00000-0  19779-2 0  9992
2 30362 099.0436 341.1757 0117311 036.1830 021.7704 13.92705306410709
1 30363U 99025ACA 15056.69691599  .00001478  00000-0  94883-3 0  9996
2 30363 099.1188 033.6476 0096365 213.8972 145.6011 14.02577980413934
1 30364U 99025ACB 15055.41474560  .00002740  00000-0  11475-2 0  9991
2 30364 098.1202 027.5707 0442805 242.7695 273.8638 13.84733250407426
1 30365U 99025ACC 15056.55037796  .00000405  00000-0  19825-3 0  9998
2 30365 098.8701 085.2728 0173078 265.2330 249.6380 14.15880444417857
1 30366U 99025ACD 15056.82843696  .00001001  00000-0  42524-3 0  9998
2 30366 098.9087 161.0160 0070882 116.9039 002.4445 14.26214032420640
1 30368U 99025ACF 15056.66348383  .00000077  00000-0  11526-3 0  9995
2 30368 099.1419 310.7684 0182213 280.5754 132.3464 13.73238937405347
1 30369U 99025ACG 15055.65305708  .00000060  00000-0  56906-4 0  9992
2 30369 098.9757 079.5701 0102786 189.7488 295.0936 14.09690734416778
1 30370U 99025ACH 15056.36643225  .00001502  00000-0  87399-3 0  9993
2 30370 098.9838 011.0295 0112944 220.9398 293.6032 14.07029587414953
1 30371U 99025ACJ 15056.12619721  .00001564  00000-0  78556-3 0  9995
2 30371 098.9237 077.6216 0009496 191.7483 214.8562 14.17992832418843
1 30372U 99025ACK 15056.50209664  .00008169  00000-0  20376-2 0  9993
2 30372 099.0996 246.7491 0075543 308.6185 103.8210 14.50176038424254
1 30373U 99025ACL 15056.08300133  .00009426  00000-0  20096-2 0  9996
2 30373 099.0993 271.7667 0083447 252.9276 257.7931 14.56995683425081
1 30374U 99025ACM 15056.23933514  .00002900  00000-0  10742-2 0  9996
2 30374 099.3138 265.7890 0062138 165.3185 246.6724 14.32076949422215
1 30375U 99025ACN 15055.36328714  .00008486  00000-0  34177-2 0  9993
2 30375 098.5695 345.9238 0011448 015.7524 104.1235 14.28217290418777
1 30377U 99025ACQ 15055.95782721  .00000573  00000-0  42436-3 0  9999
2 30377 099.2472 066.0784 0121242 284.5733 135.5093 13.96099264411528
1 30379U 99025ACS 15055.99482116  .00000495  00000-0  33215-3 0  9998
2 30379 099.1025 067.8575 0038303 145.4916 268.2857 14.05177353414086
1 30380U 99025ACT 15056.42082258  .00001212  00000-0  29577-3 0  9996
2 30380 098.9291 211.1652 0196945 117.3159 269.4144 14.43574355426107
1 30381U 99025ACU 15053.97338823  .00001770  00000-0  11579-2 0  9997
2 30381 099.1319 070.2690 0059796 292.3207 067.1627 14.02680137367214
1 30382U 99025ACV 15056.14983193  .00001359  00000-0  62014-3 0  9990
2 30382 098.9177 112.6901 0179441 166.4328 217.5870 14.15043294416447
1 30384U 99025ACX 15056.63877902  .00619144  00000-0  10414-1 0  9998
2 30384 098.9457 300.1757 0027107 340.2482 071.6633 15.49152394429144
1 30385U 99025ACY 15057.13435984  .00000690  00000-0  24546-3 0  9998
2 30385 099.0363 203.0377 0134682 292.4346 115.0408 14.32965468422530
1 30386U 99025ACZ 15055.91004877  .00000946  00000-0  11841-2 0  9993
2 30386 098.6632 041.7037 0326990 190.0082 241.1837 13.46205579396665
1 30387U 99025ADA 15055.99755476  .00000547  00000-0  32372-3 0  9990
2 30387 099.0038 067.6323 0001646 114.1027 274.1546 14.11939909416547
1 30388U 99025ADB 15056.68434637  .00000653  00000-0  28574-3 0  9998
2 30388 098.9941 071.8386 0240061 147.5327 279.4977 14.12893732416948
1 30389U 99025ADC 15056.86543279  .00003938  00000-0  19645-2 0  9999
2 30389 098.8799 024.4460 0019707 071.2500 341.4989 14.17343521416701
1 30390U 99025ADD 15056.52307160  .00001790  00000-0  98602-3 0  9996
2 30390 099.0810 061.7003 0084985 212.0687 271.7622 14.11084771415844
1 30391U 99025ADE 15056.00968472  .00001398  00000-0  86132-3 0  9998
2 30391 099.1189 074.2095 0083114 175.2128 215.0491 14.05482362413695
1 30392U 99025ADF 15055.95999431  .00000317  00000-0  20237-3 0  9995
2 30392 099.1529 070.8620 0193413 171.5999 250.3164 14.01712830413656
1 30393U 99025ADG 15055.85578546  .00000035  00000-0  55222-4 0  9995
2 30393 099.1598 012.5441 0071228 226.8342 187.2303 13.97770084412383
1 30394U 99025ADH 15056.82260112  .00000415  00000-0  33959-3 0  9995
2 30394 099.1262 355.1604 0091311 343.1498 074.2632 13.93395407411892
1 30395U 99025ADJ 15055.98956457  .00000571  00000-0  42652-3 0  9999
2 30395 099.2862 069.6103 0165089 341.4689 070.2560 13.92779778411092
1 30396U 99025ADK 15056.09506275  .00000107  00000-0  11601-3 0  9997
2 30396 098.2575 104.7473 0135001 216.2233 172.1073 13.86252436409491
1 30397U 99025ADL 15056.23185922  .00001546  00000-0  11700-2 0  9993
2 30397 098.4496 152.7912 0166241 235.1011 152.1092 13.89081088409283
1 30398U 99025ADM 15056.22011870  .00000464  00000-0  47768-3 0  9995
2 30398 099.6892 155.2793 0179038 069.8197 321.5367 13.74686446405463
1 30400U 99025ADP 15055.74212584  .00002135  00000-0  14018-2 0  9998
2 30400 099.1639 337.0332 0288508 244.0248 185.3446 13.84722986406823
1 30401U 99025ADQ 15055.48235103  .00000266  00000-0  12345-3 0  9997
2 30401 098.8330 150.0589 0110578 007.4049 050.3879 14.25533108420993
1 30403U 99025ADS 15056.14322124  .00001480  00000-0  95220-3 0  9995
2 30403 099.1136 033.0134 0094124 218.1187 278.2231 14.02566127413347
1 30404U 99025ADT 15056.09258296  .00000397  00000-0  62635-3 0  9998
2 30404 099.7542 293.9494 0388427 263.0017 092.6788 13.29716332392821
1 30405U 99025ADU 15054.79892481  .00002403  00000-0  13276-2 0  9990
2 30405 099.0123 105.6270 0064953 228.2143 196.4834 14.11338924415942
1 30406U 99025ADV 15056.19023671  .00001125  00000-0  13690-2 0  9994
2 30406 098.6014 041.0689 0301331 117.2770 011.1640 13.50178907398517
1 30409U 99025ADY 15055.99063947  .00000812  00000-0  52919-3 0  9994
2 30409 098.4963 244.2266 0174692 244.6425 280.6018 13.97821885412823
1 30411U 99025AEA 15056.92728819  .00001919  00000-0  14328-2 0  9997
2 30411 098.5558 194.1650 0150746 268.3717 215.5334 13.90656938410103
1 30414U 99025AED 15056.08303686  .00002394  00000-0  13596-2 0  9992
2 30414 099.1247 100.7593 0083011 188.3594 199.2734 14.09187274414571
1 30415U 99025AEE 15055.42841678  .00000730  00000-0  82058-3 0  9990
2 30415 099.7999 047.9822 0252839 213.1850 306.4027 13.61490529401195
1 30416U 99025AEF 15055.62064307  .00000598  00000-0  43026-3 0  9993
2 30416 099.1920 064.1237 0053502 288.0203 194.5378 14.00281216414064
1 30417U 99025AEG 15056.65081968  .00000465  00000-0  27495-3 0  9995
2 30417 098.9151 090.1583 0067015 170.2945 312.4688 14.11506459417474
1 30418U 99025AEH 15056.47257279  .00001935  00000-0  36045-3 0  9990
2 30418 098.8883 240.8176 0169456 024.8383 004.3871 14.57550383429479
